COMMENT,ORIGINATOR,NORAD_CAT_ID,OBJECT_NAME,OBJECT_TYPE,CLASSIFICATION_TYPE,INTLDES,EPOCH,EPOCH_MICROSECONDS,MEAN_MOTION,ECCENTRICITY,INCLINATION,RA_OF_ASC_NODE,ARG_OF_PERICENTER,MEAN_ANOMALY,EPHEMERIS_TYPE,ELEMENT_SET_NO,REV_AT_EPOCH,BSTAR,MEAN_MOTION_DOT,MEAN_MOTION_DDOT,FILE,TLE_LINE0,TLE_LINE1,TLE_LINE2,OBJECT_ID,OBJECT_NUMBER,SEMIMAJOR_AXIS,PERIOD,APOGEE,PERIGEE,DECAYED
"GENERATED VIA SPACETRACK.ORG API","18 SPCS","48896","SPACEBEE-105","PAYLOAD","U","21059T","2022-01-17 14:39:47","219616","15.12874642","0.0007732","97.5348","148.5005","254.5094","105.5283","0","999","3110","0.00028716","0.0000499","0","3275754","0 SPACEBEE-105","1 48896U 21059T   22017.61096319  .00004990  00000-0  28716-3 0  9998","2 48896  97.5348 148.5005 0007732 254.5094 105.5283 15.12874642 31103","2021-059T","48896","6905.576","95.183","532.780","522.101","0"
"GENERATED VIA SPACETRACK.ORG API","18 SPCS","48896","SPACEBEE-105","PAYLOAD","U","21059T","2022-01-17 21:00:45","580320","15.12877658","0.000774","97.5348","148.7619","253.4093","106.6289","0","999","3114","0.00027956","0.00004856","0","3276075","0 SPACEBEE-105","1 48896U 21059T   22017.87552755  .00004856  00000-0  27956-3 0  9993","2 48896  97.5348 148.7619 0007740 253.4093 106.6289 15.12877658 31144","2021-059T","48896","6905.566","95.183","532.776","522.086","0"
"GENERATED VIA SPACETRACK.ORG API","18 SPCS","48896","SPACEBEE-105","PAYLOAD","U","21059T","2022-01-18 08:07:27","581088","15.12883781","0.0007773","97.5348","149.2193","251.6726","108.366","0","999","3121","0.00029934","0.00005205","0","3276372","0 SPACEBEE-105","1 48896U 21059T   22018.33851367  .00005205  00000-0  29934-3 0  9993","2 48896  97.5348 149.2193 0007773 251.6726 108.3660 15.12883781 31210","2021-059T","48896","6905.548","95.182","532.780","522.045","0"
"GENERATED VIA SPACETRACK.ORG API","18 SPCS","48896","SPACEBEE-105","PAYLOAD","U","21059T","2022-01-18 14:28:25","851072","15.12885079","0.0007795","97.5348","149.4807","250.648","109.3908","0","999","3125","0.00026858","0.00004664","0","3276616","0 SPACEBEE-105","1 48896U 21059T   22018.60307698  .00004664  00000-0  26858-3 0  9996","2 48896  97.5348 149.4807 0007795 250.6480 109.3908 15.12885079 31256","2021-059T","48896","6905.544","95.182","532.792","522.026","0"
"GENERATED VIA SPACETRACK.ORG API","18 SPCS","48896","SPACEBEE-105","PAYLOAD","U","21059T","2022-01-18 20:49:24","83904","15.12887939","0.0007813","97.5348","149.742","249.5925","110.4467","0","999","3129","0.00027669","0.00004807","0","3276875","0 SPACEBEE-105","1 48896U 21059T   22018.86763986  .00004807  00000-0  27669-3 0  9990","2 48896  97.5348 149.7420 0007813 249.5925 110.4467 15.12887939 31296","2021-059T","48896","6905.535","95.182","532.795","522.005","0"
"GENERATED VIA SPACETRACK.ORG API","18 SPCS","48896","SPACEBEE-105","PAYLOAD","U","21059T","2022-01-19 14:17:03","910560","15.12897897","0.0007876","97.5347","150.4609","246.9802","113.0599","0","999","3140","0.00034335","0.00005984","0","3277432","0 SPACEBEE-105","1 48896U 21059T   22019.59518415  .00005984  00000-0  34335-3 0  9991","2 48896  97.5347 150.4609 0007876 246.9802 113.0599 15.12897897 31409","2021-059T","48896","6905.505","95.182","532.809","521.931","0"
"GENERATED VIA SPACETRACK.ORG API","18 SPCS","48896","SPACEBEE-105","PAYLOAD","U","21059T","2022-01-19 14:17:03","910560","15.12897897","0.0007876","97.5347","150.4609","246.9802","113.0599","0","999","3140","0.00034335","0.00005984","0","3277674","0 SPACEBEE-105","1 48896U 21059T   22019.59518415  .00005984  00000-0  34335-3 0  9991","2 48896  97.5347 150.4609 0007876 246.9802 113.0599 15.12897897 31409","2021-059T","48896","6905.505","95.182","532.809","521.931","0"
"GENERATED VIA SPACETRACK.ORG API","18 SPCS","48896","SPACEBEE-105","PAYLOAD","U","21059T","2022-01-20 14:05:41","521632","15.12903291","0.0007952","97.5348","151.4408","243.1953","116.8465","0","999","3155","0.00023926","0.00004149","0","3278533","0 SPACEBEE-105","1 48896U 21059T   22020.58728613  .00004149  00000-0  23926-3 0  9991","2 48896  97.5348 151.4408 0007952 243.1953 116.8465 15.12903291 31554","2021-059T","48896","6905.488","95.181","532.845","521.862","0"
"GENERATED VIA SPACETRACK.ORG API","18 SPCS","48896","SPACEBEE-105","PAYLOAD","U","21059T","2022-01-20 15:40:55","993440","15.1290386","0.0007965","97.5347","151.506","242.9565","117.0853","0","999","3156","0.0002312","0.00004007","0","3278606","0 SPACEBEE-105","1 48896U 21059T   22020.65342585  .00004007  00000-0  23120-3 0  9998","2 48896  97.5347 151.5060 0007965 242.9565 117.0853 15.12903860 31565","2021-059T","48896","6905.487","95.181","532.852","521.851","0"
"GENERATED VIA SPACETRACK.ORG API","18 SPCS","48896","SPACEBEE-105","PAYLOAD","U","21059T","2022-01-20 22:01:53","913504","15.12906666","0.0007964","97.5348","151.7674","241.9065","118.1362","0","999","3160","0.00023945","0.00004153","0","3278800","0 SPACEBEE-105","1 48896U 21059T   22020.91798511  .00004153  00000-0  23945-3 0  9998","2 48896  97.5348 151.7674 0007964 241.9065 118.1362 15.12906666 31601","2021-059T","48896","6905.478","95.181","532.843","521.844","0"
"GENERATED VIA SPACETRACK.ORG API","18 SPCS","48896","SPACEBEE-105","PAYLOAD","U","21059T","2022-01-21 07:33:20","752128","15.12910611","0.0007986","97.5348","152.1595","240.4816","119.5619","0","999","3166","0.0002521","0.00004377","0","3279324","0 SPACEBEE-105","1 48896U 21059T   22021.31482352  .00004377  00000-0  25210-3 0  9991","2 48896  97.5348 152.1595 0007986 240.4816 119.5619 15.12910611 31661","2021-059T","48896","6905.466","95.181","532.846","521.816","0"
"GENERATED VIA SPACETRACK.ORG API","18 SPCS","48896","SPACEBEE-105","PAYLOAD","U","21059T","2022-01-21 15:29:33","64512","15.12913262","0.0007993","97.5348","152.4861","239.1009","120.9437","0","999","3171","0.0002503","0.00004345","0","3279606","0 SPACEBEE-105","1 48896U 21059T   22021.64552158  .00004345  00000-0  25030-3 0  9994","2 48896  97.5348 152.4861 0007993 239.1009 120.9437 15.12913262 31712","2021-059T","48896","6905.458","95.181","532.843","521.803","0"
"GENERATED VIA SPACETRACK.ORG API","18 SPCS","48896","SPACEBEE-105","PAYLOAD","U","21059T","2022-01-21 23:25:45","313824","15.12916643","0.0007992","97.5348","152.8129","237.9374","122.1081","0","999","3176","0.00026174","0.00004547","0","3280062","0 SPACEBEE-105","1 48896U 21059T   22021.97621891  .00004547  00000-0  26174-3 0  9995","2 48896  97.5348 152.8129 0007992 237.9374 122.1081 15.12916643 31763","2021-059T","48896","6905.448","95.180","532.832","521.794","0"
"GENERATED VIA SPACETRACK.ORG API","18 SPCS","48896","SPACEBEE-105","PAYLOAD","U","21059T","2022-01-22 02:36:14","199552","15.12917805","0.0007998","97.5348","152.9436","237.4269","122.619","0","999","3178","0.00026349","0.00004578","0","3279667","0 SPACEBEE-105","1 48896U 21059T   22022.10849768  .00004578  00000-0  26349-3 0  9994","2 48896  97.5348 152.9436 0007998 237.4269 122.6190 15.12917805 31788","2021-059T","48896","6905.444","95.180","532.832","521.786","0"
"GENERATED VIA SPACETRACK.ORG API","18 SPCS","48896","SPACEBEE-105","PAYLOAD","U","21059T","2022-01-22 21:39:07","297920","15.12925006","0.0008012","97.5348","153.7277","234.146","125.9027","0","999","3190","0.00025738","0.00004472","0","3280371","0 SPACEBEE-105","1 48896U 21059T   22022.90216780  .00004472  00000-0  25738-3 0  9998","2 48896  97.5348 153.7277 0008012 234.1460 125.9027 15.12925006 31906","2021-059T","48896","6905.422","95.180","532.820","521.755","0"
"GENERATED VIA SPACETRACK.ORG API","18 SPCS","48896","SPACEBEE-105","PAYLOAD","U","21059T","2022-01-23 04:00:04","897440","15.1292895","0.0008029","97.5348","153.9891","233.0443","127.0053","0","999","3194","0.00029119","0.00005069","0","3280480","0 SPACEBEE-105","1 48896U 21059T   22023.16672335  .00005069  00000-0  29119-3 0  9999","2 48896  97.5348 153.9891 0008029 233.0443 127.0053 15.12928950 31944","2021-059T","48896","6905.410","95.180","532.820","521.731","0"
"GENERATED VIA SPACETRACK.ORG API","18 SPCS","48896","SPACEBEE-105","PAYLOAD","U","21059T","2022-01-23 07:10:33","695904","15.12929568","0.0008037","97.5348","154.1198","232.4603","127.5898","0","999","3196","0.00027317","0.00004751","0","3280923","0 SPACEBEE-105","1 48896U 21059T   22023.29900111  .00004751  00000-0  27317-3 0  9994","2 48896  97.5348 154.1198 0008037 232.4603 127.5898 15.12929568 31967","2021-059T","48896","6905.408","95.180","532.823","521.724","0"
"GENERATED VIA SPACETRACK.ORG API","18 SPCS","48896","SPACEBEE-105","PAYLOAD","U","21059T","2022-01-23 21:27:43","194816","15.12933099","0.000806","97.5348","154.7079","230.0445","130.0079","0","999","3205","0.00022461","0.00003895","0","3281238","0 SPACEBEE-105","1 48896U 21059T   22023.89424994  .00003895  00000-0  22461-3 0  9993","2 48896  97.5348 154.7079 0008060 230.0445 130.0079 15.12933099 32050","2021-059T","48896","6905.398","95.179","532.828","521.697","0"
"GENERATED VIA SPACETRACK.ORG API","18 SPCS","48896","SPACEBEE-105","PAYLOAD","U","21059T","2022-01-24 08:34:23","803680","15.12936626","0.0008081","97.5348","155.1653","228.2573","131.7967","0","999","3212","0.00021068","0.00003649","0","3281533","0 SPACEBEE-105","1 48896U 21059T   22024.35721995  .00003649  00000-0  21068-3 0  9995","2 48896  97.5348 155.1653 0008081 228.2573 131.7967 15.12936626 32128","2021-059T","48896","6905.387","95.179","532.832","521.672","0"
"GENERATED VIA SPACETRACK.ORG API","18 SPCS","48896","SPACEBEE-105","PAYLOAD","U","21059T","2022-01-24 08:34:23","803680","15.12936626","0.0008081","97.5348","155.1653","228.2573","131.7967","0","999","3212","0.00021068","0.00003649","0","3281820","0 SPACEBEE-105","1 48896U 21059T   22024.35721995  .00003649  00000-0  21068-3 0  9995","2 48896  97.5348 155.1653 0008081 228.2573 131.7967 15.12936626 32128","2021-059T","48896","6905.387","95.179","532.832","521.672","0"
